norad_id,name,regime,epoch,line1,line2,inclination,eccentricity,mean_motion,raan,arg_pericenter,mean_anomaly
43015,MIRATA,LEO,21069.78876792,1 43015U 17073C   21069.78876792  .00001324  00000-0  10723-3 0    13\,2 43015  97.7107 337.8528 0249272 259.2435  98.0628 14.80412442178614,97.7107,0.0249272,14.80412442,337.8528,259.2435,98.0628
43015,MIRATA,LEO,21070.32949245,1 43015U 17073C   21070.32949245  .00001228  00000-0  99920-4 0    19\,2 43015  97.7107 338.3730 0249271 257.4662  99.8566 14.80413354178697,97.7107,0.0249271,14.80413354,338.373,257.4662,99.8566
43015,MIRATA,LEO,21070.80262620,1 43015U 17073C   21070.80262620  .00001196  00000-0  97453-4 0    10\,2 43015  97.7108 338.8283 0249274 255.9104 101.4290 14.80414523178764,97.7108,0.0249274,14.80414523,338.8283,255.9104,101.429
43015,MIRATA,LEO,21071.20816946,1 43015U 17073C   21071.20816946  .00001144  00000-0  93438-4 0    13\,2 43015  97.7108 339.2185 0249273 254.5777 102.7777 14.80415377178829,97.7108,0.0249273,14.80415377,339.2185,254.5777,102.7777
43015,MIRATA,LEO,21071.68130288,1 43015U 17073C   21071.68130288  .00001226  00000-0  99744-4 0    10\,2 43015  97.7108 339.6737 0249276 253.0232 104.3527 14.80417195178897,97.7108,0.0249276,14.80417195,339.6737,253.0232,104.3527
43015,MIRATA,LEO,21072.01925548,1 43015U 17073C   21072.01925548  .00001208  00000-0  98375-4 0   333\,2 43015  97.7108 339.9989 0249276 251.9121 105.4797 14.80418035178944,97.7108,0.0249276,14.80418035,339.9989,251.9121,105.4797
43015,MIRATA,LEO,21072.49238848,1 43015U 17073C   21072.49238848  .00001340  00000-0  10842-3 0    19\,2 43015  97.7107 340.4541 0249278 250.3575 107.0583 14.80420198179015,97.7107,0.0249278,14.80420198,340.4541,250.3575,107.0583
43015,MIRATA,LEO,21072.69515941,1 43015U 17073C   21072.69515941  .00001443  00000-0  11630-3 0    13\,2 43015  97.7107 340.6492 0249278 249.6921 107.7346 14.80421514179048,97.7107,0.0249278,14.80421514,340.6492,249.6921,107.7346
43015,MIRATA,LEO,21073.16829276,1 43015U 17073C   21073.16829276  .00001396  00000-0  11264-3 0   341\,2 43015  97.7107 341.1045 0249285 248.1372 109.3163 14.80422602179112,97.7107,0.0249285,14.80422602,341.1045,248.1372,109.3163
43015,MIRATA,LEO,21073.57383454,1 43015U 17073C   21073.57383454  .00001656  00000-0  13252-3 0    11\,2 43015  97.7106 341.4947 0249287 246.8061 110.6719 14.80425423179179,97.7106,0.0249287,14.80425423,341.4947,246.8061,110.6719
43015,MIRATA,LEO,21074.18214797,1 43015U 17073C   21074.18214797  .00001733  00000-0  13839-3 0   356\,2 43015  97.7106 342.0800 0249293 244.8071 112.7106 14.80427767179266,97.7106,0.0249293,14.80427767,342.08,244.8071,112.7106
43015,MIRATA,LEO,21074.45250912,1 43015U 17073C   21074.45250912  .00001756  00000-0  14012-3 0    17\,2 43015  97.7105 342.3402 0249290 243.9171 113.6194 14.80428855179305,97.7105,0.024929,14.80428855,342.3402,243.9171,113.6194
43015,MIRATA,LEO,21074.72287051,1 43015U 17073C   21074.72287051  .00001746  00000-0  13936-3 0    14\,2 43015  97.7104 342.6003 0249299 243.0303 114.5253 14.80429695179344,97.7104,0.0249299,14.80429695,342.6003,243.0303,114.5253
43015,MIRATA,LEO,21075.19600329,1 43015U 17073C   21075.19600329  .00001637  00000-0  13103-3 0   366\,2 43015  97.7104 343.0555 0249307 241.4735 116.1175 14.80430514179413,97.7104,0.0249307,14.80430514,343.0555,241.4735,116.1175
43015,MIRATA,LEO,21075.46636468,1 43015U 17073C   21075.46636468  .00001577  00000-0  12646-3 0    15\,2 43015  97.7103 343.3157 0249314 240.5849 117.0271 14.80431078179454,97.7103,0.0249314,14.80431078,343.3157,240.5849,117.0271
43015,MIRATA,LEO,21075.73672594,1 43015U 17073C   21075.73672594  .00001538  00000-0  12341-3 0    14\,2 43015  97.7103 343.5758 0249323 239.6981 117.9355 14.80431806179494,97.7103,0.0249323,14.80431806,343.5758,239.6981,117.9355
43015,MIRATA,LEO,21076.48021962,1 43015U 17073C   21076.48021962  .00001408  00000-0  11352-3 0   370\,2 43015  97.7101 344.2911 0249337 237.2511 120.4451 14.80433504179605,97.7101,0.0249337,14.80433504,344.2911,237.2511,120.4451
43015,MIRATA,LEO,21076.54780987,1 43015U 17073C   21076.54780987  .00001409  00000-0  11357-3 0    13\,2 43015  97.7101 344.3562 0249341 237.0287 120.6734 14.80433747179617,97.7101,0.0249341,14.80433747,344.3562,237.0287,120.6734
43015,MIRATA,LEO,21076.61540016,1 43015U 17073C   21076.61540016  .00001399  00000-0  11277-3 0    17\,2 43015  97.7101 344.4212 0249343 236.8065 120.9016 14.80433929179622,97.7101,0.0249343,14.80433929,344.4212,236.8065,120.9016
43015,MIRATA,LEO,21077.49407411,1 43015U 17073C   21077.49407411  .00001248  00000-0  10121-3 0    15\,2 43015  97.7100 345.2666 0249366 233.9220 123.8669 14.80435931179754,97.71,0.0249366,14.80435931,345.2666,233.922,123.8669
43015,MIRATA,LEO,21077.69684498,1 43015U 17073C   21077.69684498  .00001235  00000-0  10026-3 0    19\,2 43015  97.7100 345.4617 0249370 233.2555 124.5528 14.80436486179782,97.71,0.024937,14.80436486,345.4617,233.2555,124.5528
43015,MIRATA,LEO,21078.30515747,1 43015U 17073C   21078.30515747  .00001172  00000-0  95396-4 0    12\,2 43015  97.7099 346.0470 0249391 231.2590 126.6098 14.80437999179878,97.7099,0.0249391,14.80437999,346.047,231.259,126.6098
43015,MIRATA,LEO,21078.71069913,1 43015U 17073C   21078.71069913  .00001162  00000-0  94612-4 0    15\,2 43015  97.7098 346.4372 0249408 229.9280 127.9826 14.80439079179932,97.7098,0.0249408,14.80439079,346.4372,229.928,127.9826
43015,MIRATA,LEO,21079.52178180,1 43015U 17073C   21079.52178180  .00001323  00000-0  10683-3 0    16\,2 43015  97.7098 347.2175 0249441 227.2626 130.7354 14.80442205180052,97.7098,0.0249441,14.80442205,347.2175,227.2626,130.7354
43015,MIRATA,LEO,21079.72455248,1 43015U 17073C   21079.72455248  .00001324  00000-0  10690-3 0    10\,2 43015  97.7098 347.4126 0249452 226.5973 131.4233 14.80442760180082,97.7098,0.0249452,14.8044276,347.4126,226.5973,131.4233
43015,MIRATA,LEO,21080.26527365,1 43015U 17073C   21080.26527365  .00001409  00000-0  11336-3 0    13\,2 43015  97.7098 347.9328 0249472 224.8212 133.2611 14.80444814180161,97.7098,0.0249472,14.80444814,347.9328,224.8212,133.2611
43015,MIRATA,LEO,21080.73840457,1 43015U 17073C   21080.73840457  .00001499  00000-0  12026-3 0    11\,2 43015  97.7097 348.3880 0249495 223.2692 134.8687 14.80446699180239,97.7097,0.0249495,14.80446699,348.388,223.2692,134.8687
43015,MIRATA,LEO,21081.27912519,1 43015U 17073C   21081.27912519  .00001621  00000-0  12948-3 0    10\,2 43015  97.7097 348.9082 0249518 221.4926 136.7108 14.80449068180316,97.7097,0.0249518,14.80449068,348.9082,221.4926,136.7108
43015,MIRATA,LEO,21081.95502643,1 43015U 17073C   21081.95502643  .00001562  00000-0  12499-3 0    13\,2 43015  97.7097 349.5584 0249552 219.2748 139.0132 14.80450672180412,97.7097,0.0249552,14.80450672,349.5584,219.2748,139.0132
43015,MIRATA,LEO,21082.15779684,1 43015U 17073C   21082.15779684  .00001493  00000-0  11969-3 0   426\,2 43015  97.7097 349.7535 0249564 218.6087 139.7051 14.80450864180445,97.7097,0.0249564,14.80450864,349.7535,218.6087,139.7051
43015,MIRATA,LEO,21082.49574667,1 43015U 17073C   21082.49574667  .00001620  00000-0  12934-3 0    17\,2 43015  97.7096 350.0786 0249574 217.4986 140.8591 14.80452685180493,97.7096,0.0249574,14.80452685,350.0786,217.4986,140.8591
43015,MIRATA,LEO,21082.69851671,1 43015U 17073C   21082.69851671  .00001591  00000-0  12714-3 0    15\,2 43015  97.7096 350.2737 0249582 216.8335 141.5508 14.80453203180528,97.7096,0.0249582,14.80453203,350.2737,216.8335,141.5508
43015,MIRATA,LEO,21083.17164695,1 43015U 17073C   21083.17164695  .00001530  00000-0  12247-3 0    16\,2 43015  97.7096 350.7289 0249613 215.2801 143.1672 14.80454282180596,97.7096,0.0249613,14.80454282,350.7289,215.2801,143.1672
43015,MIRATA,LEO,21083.30682678,1 43015U 17073C   21083.30682678  .00001542  00000-0  12333-3 0   432\,2 43015  97.7095 350.8589 0249618 214.8344 143.6312 14.80454805180611,97.7095,0.0249618,14.80454805,350.8589,214.8344,143.6312
43015,MIRATA,LEO,21083.71236639,1 43015U 17073C   21083.71236639  .00001572  00000-0  12560-3 0    18\,2 43015  97.7095 351.2490 0249634 213.5079 145.0129 14.80456276180678,97.7095,0.0249634,14.80456276,351.249,213.5079,145.0129
43015,MIRATA,LEO,21084.45585531,1 43015U 17073C   21084.45585531  .00001595  00000-0  12734-3 0    16\,2 43015  97.7094 351.9643 0249673 211.0723 147.5521 14.80458741180780,97.7094,0.0249673,14.80458741,351.9643,211.0723,147.5521
43015,MIRATA,LEO,21085.53729203,1 43015U 17073C   21085.53729203  .00001661  00000-0  13232-3 0    10\,2 43015  97.7094 353.0048 0249734 207.5254 151.2550 14.80462796180946,97.7094,0.0249734,14.80462796,353.0048,207.5254,151.255
43015,MIRATA,LEO,21085.67247152,1 43015U 17073C   21085.67247152  .00001656  00000-0  13187-3 0   454\,2 43015  97.7094 353.1348 0249742 207.0825 151.7178 14.80463235180960,97.7094,0.0249742,14.80463235,353.1348,207.0825,151.7178
43015,MIRATA,LEO,21085.80765112,1 43015U 17073C   21085.80765112  .00001674  00000-0  13324-3 0    15\,2 43015  97.7094 353.2649 0249748 206.6376 152.1827 14.80463733180988,97.7094,0.0249748,14.80463733,353.2649,206.6376,152.1827
43015,MIRATA,LEO,21086.55113790,1 43015U 17073C   21086.55113790  .00001583  00000-0  12628-3 0    12\,2 43015  97.7094 353.9801 0249802 204.2001 154.7315 14.80465757181096,97.7094,0.0249802,14.80465757,353.9801,204.2001,154.7315
43015,MIRATA,LEO,21086.68631731,1 43015U 17073C   21086.68631731  .00001564  00000-0  12481-3 0   461\,2 43015  97.7094 354.1101 0249809 203.7562 155.1958 14.80466089181115,97.7094,0.0249809,14.80466089,354.1101,203.7562,155.1958
43015,MIRATA,LEO,21086.95667618,1 43015U 17073C   21086.95667618  .00001550  00000-0  12375-3 0    12\,2 43015  97.7094 354.3702 0249825 202.8689 156.1245 14.80466780181154,97.7094,0.0249825,14.8046678,354.3702,202.8689,156.1245
43015,MIRATA,LEO,21087.29462433,1 43015U 17073C   21087.29462433  .00001524  00000-0  12176-3 0    18\,2 43015  97.7094 354.6953 0249843 201.7594 157.2859 14.80467770181207,97.7094,0.0249843,14.8046777,354.6953,201.7594,157.2859
